NORAD_CAT_ID,OBJECT_NAME,OBJECT_TYPE,EPOCH,MEAN_MOTION,ECCENTRICITY,INCLINATION,RA_OF_ASC_NODE,ARG_OF_PERICENTER,MEAN_ANOMALY,BSTAR,MEAN_MOTION_DOT,MEAN_MOTION_DDOT,TLE_LINE0,TLE_LINE1,TLE_LINE2,SEMIMAJOR_AXIS,PERIOD,APOGEE,PERIGEE,DECAYED
54784.0,STARLINK-5442,PAYLOAD,2023-09-01 08:35:38,15.08823087,0.0001396,53.2164,215.41,92.55,267.5652,0.00024496,3.611e-05,0.0,0 STARLINK-5442,1 54784U 22175AC  23244.35808687  .00003611  00000-0  24496-3 0  9994,2 54784  53.2164 215.4100 0001396  92.5500 267.5652 15.08823087 40980,6917.932,95.439,540.763,538.831,0.0
54784.0,STARLINK-5442,PAYLOAD,2023-09-01 14:57:10,15.08839747,0.0001338,53.2164,214.2205,89.9817,270.1329,2.0102e-05,3.2e-07,0.0,0 STARLINK-5442,1 54784U 22175AC  23244.62304324  .00000032  00000-0  20102-4 0  9998,2 54784  53.2164 214.2205 0001338  89.9817 270.1329 15.08839747 38865,6917.881,95.438,540.672,538.821,0.0
54784.0,STARLINK-5442,PAYLOAD,2023-09-02 10:01:47,15.08846875,0.0001398,53.2158,210.6516,84.5054,275.6098,0.0001705,2.427e-05,0.0,0 STARLINK-5442,1 54784U 22175AC  23245.41791336  .00002427  00000-0  17050-3 0  9996,2 54784  53.2158 210.6516 0001398  84.5054 275.6098 15.08846875 41141,6917.859,95.437,540.691,538.757,0.0
54784.0,STARLINK-5442,PAYLOAD,2023-09-02 14:47:58,15.08825972,0.000136,53.2161,209.7601,86.1826,273.9322,-1.6569e-05,-5.51e-06,0.0,0 STARLINK-5442,1 54784U 22175AC  23245.61665105 -.00000551  00000-0 -16569-4 0  9995,2 54784  53.2161 209.7601 0001360  86.1826 273.9322 15.08825972 39012,6917.923,95.438,540.729,538.847,0.0
54784.0,STARLINK-5442,PAYLOAD,2023-09-03 05:06:26,15.08840733,0.0001559,53.2173,207.0839,83.0375,277.0795,6.5095e-05,7.48e-06,0.0,0 STARLINK-5442,1 54784U 22175AC  23246.21280360  .00000748  00000-0  65095-4 0  9992,2 54784  53.2173 207.0839 0001559  83.0375 277.0795 15.08840733 39105,6917.878,95.438,540.822,538.665,0.0
54784.0,STARLINK-5442,PAYLOAD,2023-09-03 14:38:45,15.0883571,0.0001456,53.2174,205.2986,81.2893,278.8264,1.5541e-05,-4.1e-07,0.0,0 STARLINK-5442,1 54784U 22175AC  23246.61024887 -.00000041  00000-0  15541-4 0  9994,2 54784  53.2174 205.2986 0001456  81.2893 278.8264 15.08835710 39165,6917.894,95.438,540.766,538.751,0.0
54784.0,STARLINK-5442,PAYLOAD,2023-09-04 06:32:37,15.0882668,0.0001101,53.216,202.3268,83.6148,276.497,9.3937e-05,1.207e-05,0.0,0 STARLINK-5442,1 54784U 22175AC  23247.27265084  .00001207  00000-0  93937-4 0  9992,2 54784  53.2160 202.3268 0001101  83.6148 276.4970 15.08826680 41423,6917.921,95.438,540.548,539.024,0.0
54784.0,STARLINK-5442,PAYLOAD,2023-09-05 03:12:36,15.08847233,0.0001386,53.2166,198.46,83.672,276.443,0.00017094,2.434e-05,0.0,0 STARLINK-5442,1 54784U 22175AC  23248.13375964  .00002434  00000-0  17094-3 0  9999,2 54784  53.2166 198.4600 0001386  83.6720 276.4430 15.08847233 39396,6917.858,95.437,540.682,538.764,0.0
54784.0,STARLINK-5442,PAYLOAD,2023-09-06 03:03:24,15.08835189,0.0001484,53.2165,193.9993,83.3466,276.7695,0.00012118,1.641e-05,0.0,0 STARLINK-5442,1 54784U 22175AC  23249.12736930  .00001641  00000-0  12118-3 0  9994,2 54784  53.2165 193.9993 0001484  83.3466 276.7695 15.08835189 39543,6917.895,95.438,540.787,538.733,0.0
54784.0,STARLINK-5442,PAYLOAD,2023-09-06 20:32:39,15.08843575,0.000156,53.2167,190.7283,87.8466,272.2705,-1.6845e-05,-5.56e-06,0.0,0 STARLINK-5442,1 54784U 22175AC  23249.85600833 -.00000556  00000-0 -16845-4 0  9994,2 54784  53.2167 190.7283 0001560  87.8466 272.2705 15.08843575 41810,6917.869,95.437,540.814,538.655,0.0
54784.0,STARLINK-5442,PAYLOAD,2023-09-07 06:04:57,15.0884776,0.0001205,53.2165,188.9422,87.3769,272.7361,-1.0799e-05,-4.6e-06,0.0,0 STARLINK-5442,1 54784U 22175AC  23250.25344400 -.00000460  00000-0 -10799-4 0  9991,2 54784  53.2165 188.9422 0001205  87.3769 272.7361 15.08847760 39718,6917.857,95.437,540.555,538.888,0.0
54784.0,STARLINK-5442,PAYLOAD,2023-09-08 02:44:58,15.08837782,0.0001101,53.2164,185.0774,81.1587,278.9529,6.0991e-05,6.83e-06,0.0,0 STARLINK-5442,1 54784U 22175AC  23251.11457020  .00000683  00000-0  60991-4 0  9994,2 54784  53.2164 185.0774 0001101  81.1587 278.9529 15.08837782 39841,6917.887,95.438,540.514,538.991,0.0
54784.0,STARLINK-5442,PAYLOAD,2023-09-09 05:46:31,15.08845095,0.000152,53.2179,180.0262,100.1263,259.9901,0.00013543,1.868e-05,0.0,0 STARLINK-5442,1 54784U 22175AC  23252.24064638  .00001868  00000-0  13543-3 0  9994,2 54784  53.2179 180.0262 0001520 100.1263 259.9901 15.08845095 40012,6917.865,95.437,540.781,538.678,0.0
54784.0,STARLINK-5442,PAYLOAD,2023-09-09 12:08:05,15.08832604,0.0001321,53.218,178.8365,101.2529,258.8612,6.5552e-05,7.55e-06,0.0,0 STARLINK-5442,1 54784U 22175AC  23252.50561662  .00000755  00000-0  65552-4 0  9994,2 54784  53.2180 178.8365 0001321 101.2529 258.8612 15.08832604 42212,6917.903,95.438,540.682,538.854,0.0
54784.0,STARLINK-5442,PAYLOAD,2023-09-09 18:29:37,15.08832698,0.0001292,53.2178,177.6463,96.9371,263.1768,9.26e-05,1.186e-05,0.0,0 STARLINK-5442,1 54784U 22175AC  23252.77057707  .00001186  00000-0  92600-4 0  9996,2 54784  53.2178 177.6463 0001292  96.9371 263.1768 15.08832698 40095,6917.903,95.438,540.662,538.874,0.0
54784.0,STARLINK-5442,PAYLOAD,2023-09-10 00:51:09,15.08843366,0.0001366,53.2169,176.4564,93.3117,266.8031,0.00011728,1.579e-05,0.0,0 STARLINK-5442,1 54784U 22175AC  23253.03553090  .00001579  00000-0  11728-3 0  9999,2 54784  53.2169 176.4564 0001366  93.3117 266.8031 15.08843366 40137,6917.87,95.437,540.68,538.79,0.0
54784.0,STARLINK-5442,PAYLOAD,2023-09-10 04:01:55,15.0884836,0.0001436,53.2179,175.8618,92.4581,267.6575,0.00015614,2.198e-05,0.0,0 STARLINK-5442,1 54784U 22175AC  23253.16800708  .00002198  00000-0  15614-3 0  9990,2 54784  53.2179 175.8618 0001436  92.4581 267.6575 15.08848360 42317,6917.855,95.437,540.713,538.726,0.0
54784.0,STARLINK-5442,PAYLOAD,2023-09-11 02:17:20,15.08840402,0.0001445,53.2177,171.6928,79.0861,281.0294,-1.6601e-05,-5.52e-06,0.0,0 STARLINK-5442,1 54784U 22175AC  23254.09537866 -.00000552  00000-0 -16601-4 0  9997,2 54784  53.2177 171.6928 0001445  79.0861 281.0294 15.08840402 40297,6917.879,95.438,540.744,538.745,0.0
54784.0,STARLINK-5442,PAYLOAD,2023-09-11 11:49:39,15.08841212,0.0001352,53.2173,169.9131,88.224,271.8907,2.9301e-06,-2.41e-06,0.0,0 STARLINK-5442,1 54784U 22175AC  23254.49281806 -.00000241  00000-0  29301-5 0  9997,2 54784  53.2173 169.9131 0001352  88.2240 271.8907 15.08841212 42514,6917.877,95.437,540.677,538.806,0.0
54784.0,STARLINK-5442,PAYLOAD,2023-09-12 00:32:44,15.08848073,0.0001428,53.2164,167.5348,90.1909,269.9246,0.00013303,1.83e-05,0.0,0 STARLINK-5442,1 54784U 22175AC  23255.02273253  .00001830  00000-0  13303-3 0  9991,2 54784  53.2164 167.5348 0001428  90.1909 269.9246 15.08848073 40431,6917.856,95.437,540.709,538.733,0.0
54784.0,STARLINK-5442,PAYLOAD,2023-09-12 03:43:30,15.08854386,0.0001397,53.2165,166.9397,85.5825,274.5327,0.00024348,3.591e-05,0.0,0 STARLINK-5442,1 54784U 22175AC  23255.15521021  .00003591  00000-0  24348-3 0  9991,2 54784  53.2165 166.9397 0001397  85.5825 274.5327 15.08854386 42617,6917.836,95.437,540.668,538.735,0.0
54784.0,STARLINK-5442,PAYLOAD,2023-09-12 18:01:59,15.08842149,0.000138,53.2161,164.2641,83.3229,276.7921,0.00018102,2.594e-05,0.0,0 STARLINK-5442,1 54784U 22175AC  23255.75137753  .00002594  00000-0  18102-3 0  9995,2 54784  53.2161 164.2641 0001380  83.3229 276.7921 15.08842149 40540,6917.874,95.437,540.693,538.784,0.0
54784.0,STARLINK-5442,PAYLOAD,2023-09-13 00:23:31,15.08854283,0.0001459,53.2163,163.0753,94.4636,265.6523,0.00038585,5.861e-05,0.0,0 STARLINK-5442,1 54784U 22175AC  23256.01633224  .00005861  00000-0  38585-3 0  9996,2 54784  53.2163 163.0753 0001459  94.4636 265.6523 15.08854283 40586,6917.837,95.437,540.711,538.692,0.0
54784.0,STARLINK-5442,PAYLOAD,2023-09-13 03:34:17,15.08863955,0.0001465,53.2167,162.479,97.0581,263.0578,0.00057045,8.808e-05,0.0,0 STARLINK-5442,1 54784U 22175AC  23256.14880843  .00008808  00000-0  57045-3 0  9997,2 54784  53.2167 162.4790 0001465  97.0581 263.0578 15.08863955 42769,6917.807,95.436,540.686,538.659,0.0
54784.0,STARLINK-5442,PAYLOAD,2023-09-13 21:03:31,15.08849612,0.0001396,53.2167,159.2083,105.4477,254.6669,0.00016759,2.381e-05,0.0,0 STARLINK-5442,1 54784U 22175AC  23256.87744864  .00002381  00000-0  16759-3 0  9996,2 54784  53.2167 159.2083 0001396 105.4477 254.6669 15.08849612 42872,6917.851,95.437,540.682,538.75,0.0
54784.0,STARLINK-5442,PAYLOAD,2023-09-14 01:49:40,15.08855741,0.0001344,53.2167,158.3163,84.1509,275.9636,0.00052939,8.151e-05,0.0,0 STARLINK-5442,1 54784U 22175AC  23257.07616805  .00008151  00000-0  52939-3 0  9993,2 54784  53.2167 158.3163 0001344  84.1509 275.9636 15.08855741 40747,6917.832,95.437,540.627,538.768,0.0
54784.0,STARLINK-5442,PAYLOAD,2023-09-14 03:25:04,15.08857986,0.0001309,53.2167,158.0187,82.8908,277.2233,0.00067147,0.0001042,0.0,0 STARLINK-5442,1 54784U 22175AC  23257.14240748  .00010420  00000-0  67147-3 0  9999,2 54784  53.2167 158.0187 0001309  82.8908 277.2233 15.08857986 42911,6917.825,95.436,540.596,538.785,0.0
54784.0,STARLINK-5442,PAYLOAD,2023-09-14 17:43:32,15.08829809,0.0001422,53.2167,155.3413,92.8049,267.3106,0.00036844,5.579e-05,0.0,0 STARLINK-5442,1 54784U 22175AC  23257.73857423  .00005579  00000-0  36844-3 0  9997,2 54784  53.2167 155.3413 0001422  92.8049 267.3106 15.08829809 40848,6917.912,95.438,540.76,538.793,0.0
54784.0,STARLINK-5442,PAYLOAD,2023-09-14 20:54:19,15.08827738,0.0001316,53.2171,154.7465,97.8528,262.2614,0.0004253,6.485e-05,0.0,0 STARLINK-5442,1 54784U 22175AC  23257.87105587  .00006485  00000-0  42530-3 0  9995,2 54784  53.2171 154.7465 0001316  97.8528 262.2614 15.08827738 43022,6917.918,95.438,540.693,538.872,0.0
54784.0,STARLINK-5442,PAYLOAD,2023-09-15 03:15:51,15.08835692,0.0001362,53.2167,153.5572,93.1027,267.0121,0.0008261,0.00012882,0.0,0 STARLINK-5442,1 54784U 22175AC  23258.13601782  .00012882  00000-0  82610-3 0  9994,2 54784  53.2167 153.5572 0001362  93.1027 267.0121 15.08835692 43065,6917.894,95.438,540.701,538.816,0.0
